[{"OBJECT_NAME":"FLOCK 4G-21","OBJECT_ID":"2025-009AU","EPOCH":"2026-03-09T04:40:37.351200","MEAN_MOTION":15.28381075,"ECCENTRICITY":4.655e-5,"INCLINATION":97.4032,"RA_OF_ASC_NODE":151.1274,"ARG_OF_PERICENTER":329.5782,"MEAN_ANOMALY":30.5431,"EPHEMERIS_TYPE":0,"CLASSIFICATION_TYPE":"U","NORAD_CAT_ID":62651,"ELEMENT_SET_NO":999,"REV_AT_EPOCH":6367,"BSTAR":0.00049618643,"MEAN_MOTION_DOT":0.00013648,"MEAN_MOTION_DDOT":0},{"OBJECT_NAME":"STARLINK-36105","OBJECT_ID":"2025-281C","EPOCH":"2026-03-09T03:58:20.583264","MEAN_MOTION":15.27596539,"ECCENTRICITY":0.000189,"INCLINATION":43.0051,"RA_OF_ASC_NODE":346.585,"ARG_OF_PERICENTER":259.7852,"MEAN_ANOMALY":100.2787,"EPHEMERIS_TYPE":0,"CLASSIFICATION_TYPE":"U","NORAD_CAT_ID":66850,"ELEMENT_SET_NO":999,"REV_AT_EPOCH":1610,"BSTAR":0.0011061971,"MEAN_MOTION_DOT":0.00030319,"MEAN_MOTION_DDOT":0}]
